{"type": "FeatureCollection", "features": [ {"type": "Feature", "properties": {"norad_id": 57401, "name": "TIANMU-1 09", "group": "weather", "lat": -18.079411485060277, "lon": -134.0364235664128, "alt_km": 489.7840430206297, "timestamp": "2025-12-25T11:37:44.065252+00:00", "meta": {"OBJECT_NAME": "TIANMU-1 09", "OBJECT_ID": "2023-101C", "EPOCH": "2025-12-25T04:28:45.810048", "MEAN_MOTION": 15.28263298, "ECCENTRICITY": 0.0006211, "INCLINATION": 97.2801, "RA_OF_ASC_NODE": 48.0643, "ARG_OF_PERICENTER": 49.5415, "MEAN_ANOMALY": 310.6366, "EPHEMERIS_TYPE": 0, "CLASSIFICATION_TYPE": "U", "NORAD_CAT_ID": 57401, "ELEMENT_SET_NO": 999, "REV_AT_EPOCH": 13505, "BSTAR": 0.00029267, "MEAN_MOTION_DOT": 7.991e-05, "MEAN_MOTION_DDOT": 0}, "tle": {"line1": "1 57401U 23101C   25359.18664132  .00007991  00000+0  29267-3 0  9993", "line2": "2 57401  97.2801  48.0643 0006211  49.5415 310.6366 15.28263298135054"}}, "geometry": {"type": "Point", "coordinates": [-134.0364235664128, -18.079411485060277]}}, {"type": "Feature", "properties": {"norad_id": 57402, "name": "TIANMU-1 10", "group": "weather", "lat": 9.363875777187468, "lon": 48.00957731172526, "alt_km": 478.4323634970078, "timestamp": "2025-12-25T11:37:44.065262+00:00", "meta": {"OBJECT_NAME": "TIANMU-1 10", "OBJECT_ID": "2023-101D", "EPOCH": "2025-12-25T03:43:50.223360", "MEAN_MOTION": 15.28254727, "ECCENTRICITY": 0.0007925, "INCLINATION": 97.2882, "RA_OF_ASC_NODE": 48.8969, "ARG_OF_PERICENTER": 47.0454, "MEAN_ANOMALY": 313.1449, "EPHEMERIS_TYPE": 0, "CLASSIFICATION_TYPE": "U", "NORAD_CAT_ID": 57402, "ELEMENT_SET_NO": 999, "REV_AT_EPOCH": 13504, "BSTAR": 0.00031362, "MEAN_MOTION_DOT": 8.569e-05, "MEAN_MOTION_DDOT": 0}, "tle": {"line1": "1 57402U 23101D   25359.15544240  .00008569  00000+0  31362-3 0  9999", "line2": "2 57402  97.2882  48.8969 0007925  47.0454 313.1449 15.28254727135048"}}, "geometry": {"type": "Point", "coordinates": [48.00957731172526, 9.363875777187468]}}, {"type": "Feature", "properties": {"norad_id": 57490, "name": "FENGYUN 3F", "group": "weather", "lat": -9.846011702429736, "lon": 69.09530817980033, "alt_km": 830.1646601878028, "timestamp": "2025-12-25T11:37:44.065272+00:00", "meta": {"OBJECT_NAME": "FENGYUN 3F", "OBJECT_ID": "2023-111A", "EPOCH": "2025-12-25T04:54:39.035808", "MEAN_MOTION": 14.19896763, "ECCENTRICITY": 8.33e-05, "INCLINATION": 98.7067, "RA_OF_ASC_NODE": 67.296, "ARG_OF_PERICENTER": 117.6209, "MEAN_ANOMALY": 242.5052, "EPHEMERIS_TYPE": 0, "CLASSIFICATION_TYPE": "U", "NORAD_CAT_ID": 57490, "ELEMENT_SET_NO": 999, "REV_AT_EPOCH": 12417, "BSTAR": 5.5793e-05, "MEAN_MOTION_DOT": 7.5e-07, "MEAN_MOTION_DDOT": 0}, "tle": {"line1": "1 57490U 23111A   25359.20461847  .00000075  00000+0  55793-4 0  9993", "line2": "2 57490  98.7067  67.2960 0000833 117.6209 242.5052 14.19896763124173"}}, "geometry": {"type": "Point", "coordinates": [69.09530817980033, -9.846011702429736]}}, {"type": "Feature", "properties": {"norad_id": 58584, "name": "ARKTIKA-M 2", "group": "weather", "lat": 62.28566614670025, "lon": -112.4749667190788, "alt_km": 37968.28253490857, "timestamp": "2025-12-25T11:37:44.065286+00:00", "meta": {"OBJECT_NAME": "ARKTIKA-M 2", "OBJECT_ID": "2023-198A", "EPOCH": "2025-12-24T19:00:30.507264", "MEAN_MOTION": 2.00602347, "ECCENTRICITY": 0.6865959, "INCLINATION": 63.2255, "RA_OF_ASC_NODE": 173.58, "ARG_OF_PERICENTER": 268.0557, "MEAN_ANOMALY": 18.8416, "EPHEMERIS_TYPE": 0, "CLASSIFICATION_TYPE": "U", "NORAD_CAT_ID": 58584, "ELEMENT_SET_NO": 999, "REV_AT_EPOCH": 1482, "BSTAR": 0, "MEAN_MOTION_DOT": 2.24e-06, "MEAN_MOTION_DDOT": 0}, "tle": {"line1": "1 58584U 23198A   25358.79201976  .00000224  00000+0  00000+0 0  9993", "line2": "2 58584  63.2255 173.5800 6865959 268.0557  18.8416  2.00602347 14827"}}, "geometry": {"type": "Point", "coordinates": [-112.4749667190788, 62.28566614670025]}}, {"type": "Feature", "properties": {"norad_id": 58645, "name": "TIANMU-1 11", "group": "weather", "lat": 28.530117317697773, "lon": 14.85449901373581, "alt_km": 493.8667872626329, "timestamp": "2025-12-25T11:37:44.065297+00:00", "meta": {"OBJECT_NAME": "TIANMU-1 11", "OBJECT_ID": "2023-205A", "EPOCH": "2025-12-25T03:37:39.856800", "MEAN_MOTION": 15.24745652, "ECCENTRICITY": 0.0007567, "INCLINATION": 97.3597, "RA_OF_ASC_NODE": 18.5562, "ARG_OF_PERICENTER": 257.1867, "MEAN_ANOMALY": 102.8526, "EPHEMERIS_TYPE": 0, "CLASSIFICATION_TYPE": "U", "NORAD_CAT_ID": 58645, "ELEMENT_SET_NO": 999, "REV_AT_EPOCH": 11098, "BSTAR": 0.00027618, "MEAN_MOTION_DOT": 6.774e-05, "MEAN_MOTION_DDOT": 0}, "tle": {"line1": "1 58645U 23205A   25359.15115575  .00006774  00000+0  27618-3 0  9994", "line2": "2 58645  97.3597  18.5562 0007567 257.1867 102.8526 15.24745652110982"}}, "geometry": {"type": "Point", "coordinates": [14.85449901373581, 28.530117317697773]}}, {"type": "Feature", "properties": {"norad_id": 58646, "name": "TIANMU-1 12", "group": "weather", "lat": -55.1515538017868, "lon": -172.011385285526, "alt_km": 494.83994065682964, "timestamp": "2025-12-25T11:37:44.065306+00:00", "meta": {"OBJECT_NAME": "TIANMU-1 12", "OBJECT_ID": "2023-205B", "EPOCH": "2025-12-25T04:17:49.199424", "MEAN_MOTION": 15.24633608, "ECCENTRICITY": 0.0005997, "INCLINATION": 97.3585, "RA_OF_ASC_NODE": 18.3849, "ARG_OF_PERICENTER": 234.8181, "MEAN_ANOMALY": 125.2495, "EPHEMERIS_TYPE": 0, "CLASSIFICATION_TYPE": "U", "NORAD_CAT_ID": 58646, "ELEMENT_SET_NO": 999, "REV_AT_EPOCH": 11097, "BSTAR": 0.00026701, "MEAN_MOTION_DOT": 6.523e-05, "MEAN_MOTION_DDOT": 0}, "tle": {"line1": "1 58646U 23205B   25359.17904166  .00006523  00000+0  26701-3 0  9993", "line2": "2 58646  97.3585  18.3849 0005997 234.8181 125.2495 15.24633608110972"}}, "geometry": {"type": "Point", "coordinates": [-172.011385285526, -55.1515538017868]}}, {"type": "Feature", "properties": {"norad_id": 58647, "name": "TIANMU-1 13", "group": "weather", "lat": 52.999430869802936, "lon": 9.01296716469664, "alt_km": 491.0776743790284, "timestamp": "2025-12-25T11:37:44.065316+00:00", "meta": {"OBJECT_NAME": "TIANMU-1 13", "OBJECT_ID": "2023-205C", "EPOCH": "2025-12-25T03:31:06.964032", "MEAN_MOTION": 15.24676047, "ECCENTRICITY": 0.0006664, "INCLINATION": 97.3613, "RA_OF_ASC_NODE": 18.5593, "ARG_OF_PERICENTER": 213.0912, "MEAN_ANOMALY": 146.991, "EPHEMERIS_TYPE": 0, "CLASSIFICATION_TYPE": "U", "NORAD_CAT_ID": 58647, "ELEMENT_SET_NO": 999, "REV_AT_EPOCH": 11096, "BSTAR": 0.00029127, "MEAN_MOTION_DOT": 7.132e-05, "MEAN_MOTION_DDOT": 0}, "tle": {"line1": "1 58647U 23205C   25359.14660838  .00007132  00000+0  29127-3 0  9998", "line2": "2 58647  97.3613  18.5593 0006664 213.0912 146.9910 15.24676047110961"}}, "geometry": {"type": "Point", "coordinates": [9.01296716469664, 52.999430869802936]}}, {"type": "Feature", "properties": {"norad_id": 58648, "name": "TIANMU-1 14", "group": "weather", "lat": 35.640263299438615, "lon": -156.45788630292213, "alt_km": 488.05305493550713, "timestamp": "2025-12-25T11:37:44.065326+00:00", "meta": {"OBJECT_NAME": "TIANMU-1 14", "OBJECT_ID": "2023-205D", "EPOCH": "2025-12-25T04:41:55.028256", "MEAN_MOTION": 15.24660114, "ECCENTRICITY": 0.0007359, "INCLINATION": 97.3545, "RA_OF_ASC_NODE": 17.945, "ARG_OF_PERICENTER": 218.9834, "MEAN_ANOMALY": 141.0874, "EPHEMERIS_TYPE": 0, "CLASSIFICATION_TYPE": "U", "NORAD_CAT_ID": 58648, "ELEMENT_SET_NO": 999, "REV_AT_EPOCH": 11097, "BSTAR": 0.00028832, "MEAN_MOTION_DOT": 7.057e-05, "MEAN_MOTION_DDOT": 0}, "tle": {"line1": "1 58648U 23205D   25359.19577579  .00007057  00000+0  28832-3 0  9991", "line2": "2 58648  97.3545  17.9450 0007359 218.9834 141.0874 15.24660114110974"}}, "geometry": {"type": "Point", "coordinates": [-156.45788630292213, 35.640263299438615]}}, {"type": "Feature", "properties": {"norad_id": 58660, "name": "TIANMU-1 19", "group": "weather", "lat": -13.726215694783642, "lon": -71.33076633255997, "alt_km": 482.9672603017734, "timestamp": "2025-12-25T11:37:44.065337+00:00", "meta": {"OBJECT_NAME": "TIANMU-1 19", "OBJECT_ID": "2023-208A", "EPOCH": "2025-12-25T04:29:49.864416", "MEAN_MOTION": 15.28073467, "ECCENTRICITY": 0.0004802, "INCLINATION": 97.4389, "RA_OF_ASC_NODE": 110.2015, "ARG_OF_PERICENTER": 200.1267, "MEAN_ANOMALY": 159.9784, "EPHEMERIS_TYPE": 0, "CLASSIFICATION_TYPE": "U", "NORAD_CAT_ID": 58660, "ELEMENT_SET_NO": 999, "REV_AT_EPOCH": 11072, "BSTAR": 0.00038956, "MEAN_MOTION_DOT": 0.00010598, "MEAN_MOTION_DDOT": 0}, "tle": {"line1": "1 58660U 23208A   25359.18738269  .00010598  00000+0  38956-3 0  9994", "line2": "2 58660  97.4389 110.2015 0004802 200.1267 159.9784 15.28073467110726"}}, "geometry": {"type": "Point", "coordinates": [-71.33076633255997, -13.726215694783642]}}, {"type": "Feature", "properties": {"norad_id": 58661, "name": "TIANMU-1 20", "group": "weather", "lat": -37.1671940213233, "lon": 116.63824223062097, "alt_km": 485.98536019238054, "timestamp": "2025-12-25T11:37:44.065346+00:00", "meta": {"OBJECT_NAME": "TIANMU-1 20", "OBJECT_ID": "2023-208B", "EPOCH": "2025-12-25T05:30:40.701600", "MEAN_MOTION": 15.29265036, "ECCENTRICITY": 0.0006818, "INCLINATION": 97.4326, "RA_OF_ASC_NODE": 110.7035, "ARG_OF_PERICENTER": 214.2, "MEAN_ANOMALY": 145.8802, "EPHEMERIS_TYPE": 0, "CLASSIFICATION_TYPE": "U", "NORAD_CAT_ID": 58661, "ELEMENT_SET_NO": 999, "REV_AT_EPOCH": 11080, "BSTAR": 0.0003586, "MEAN_MOTION_DOT": 0.00010115, "MEAN_MOTION_DDOT": 0}, "tle": {"line1": "1 58661U 23208B   25359.22963775  .00010115  00000+0  35860-3 0  9998", "line2": "2 58661  97.4326 110.7035 0006818 214.2000 145.8802 15.29265036110805"}}, "geometry": {"type": "Point", "coordinates": [116.63824223062097, -37.1671940213233]}}]}